CCSDS_OMM_VERS = 2.0
CREATION_DATE  = 
ORIGINATOR     = 

OBJECT_NAME    = UNKNOWN
OBJECT_ID      = 
CENTER_NAME    = EARTH
REF_FRAME      = TEME
TIME_SYSTEM    = UTC
MEAN_ELEMENT_THEORY = SGP/SGP4

EPOCH          = 2025-11-10T15:53:49.192224
MEAN_MOTION    = 12.50038553
ECCENTRICITY   = .00233325
INCLINATION    = 73.6010
RA_OF_ASC_NODE = 105.6937
ARG_OF_PERICENTER = 350.1588
MEAN_ANOMALY   = 9.9000

EPHEMERIS_TYPE = 0
CLASSIFICATION_TYPE = U
NORAD_CAT_ID   = 270292
ELEMENT_SET_NO = 999
REV_AT_EPOCH   = 27173
BSTAR          = .19559195E-2
MEAN_MOTION_DOT = .28E-5
MEAN_MOTION_DDOT = 0

CCSDS_OMM_VERS = 2.0
CREATION_DATE  = 
ORIGINATOR     = 

OBJECT_NAME    = UNKNOWN
OBJECT_ID      = 
CENTER_NAME    = EARTH
REF_FRAME      = TEME
TIME_SYSTEM    = UTC
MEAN_ELEMENT_THEORY = SGP/SGP4

EPOCH          = 2025-11-29T17:08:51.384768
MEAN_MOTION    = 14.54548222
ECCENTRICITY   = .00063029
INCLINATION    = 98.6701
RA_OF_ASC_NODE = 133.1638
ARG_OF_PERICENTER = 2.1668
MEAN_ANOMALY   = 357.9554

EPHEMERIS_TYPE = 0
CLASSIFICATION_TYPE = U
NORAD_CAT_ID   = 270293
ELEMENT_SET_NO = 999
REV_AT_EPOCH   = 31786
BSTAR          = .47532405E-3
MEAN_MOTION_DOT = .1979E-4
MEAN_MOTION_DDOT = 0

CCSDS_OMM_VERS = 2.0
CREATION_DATE  = 
ORIGINATOR     = 

OBJECT_NAME    = UNKNOWN
OBJECT_ID      = 
CENTER_NAME    = EARTH
REF_FRAME      = TEME
TIME_SYSTEM    = UTC
MEAN_ELEMENT_THEORY = SGP/SGP4

EPOCH          = 2025-12-02T00:46:55.667136
MEAN_MOTION    = 14.30325048
ECCENTRICITY   = .00753405
INCLINATION    = 99.1639
RA_OF_ASC_NODE = 258.9897
ARG_OF_PERICENTER = 178.4492
MEAN_ANOMALY   = 181.6936

EPHEMERIS_TYPE = 0
CLASSIFICATION_TYPE = U
NORAD_CAT_ID   = 270294
ELEMENT_SET_NO = 999
REV_AT_EPOCH   = 31280
BSTAR          = .49350094E-3
MEAN_MOTION_DOT = .1273E-4
MEAN_MOTION_DDOT = 0

CCSDS_OMM_VERS = 2.0
CREATION_DATE  = 
ORIGINATOR     = 

OBJECT_NAME    = UNKNOWN
OBJECT_ID      = 
CENTER_NAME    = EARTH
REF_FRAME      = TEME
TIME_SYSTEM    = UTC
MEAN_ELEMENT_THEORY = SGP/SGP4

EPOCH          = 2025-11-30T15:33:30.223872
MEAN_MOTION    = 14.70377652
ECCENTRICITY   = .00996741
INCLINATION    = 97.7273
RA_OF_ASC_NODE = 300.4004
ARG_OF_PERICENTER = 110.3480
MEAN_ANOMALY   = 250.8471

EPHEMERIS_TYPE = 0
CLASSIFICATION_TYPE = U
NORAD_CAT_ID   = 270295
ELEMENT_SET_NO = 999
REV_AT_EPOCH   = 8725
BSTAR          = .19938423E-2
MEAN_MOTION_DOT = .12994E-3
MEAN_MOTION_DDOT = 0

CCSDS_OMM_VERS = 2.0
CREATION_DATE  = 
ORIGINATOR     = 

OBJECT_NAME    = UNKNOWN
OBJECT_ID      = 
CENTER_NAME    = EARTH
REF_FRAME      = TEME
TIME_SYSTEM    = UTC
MEAN_ELEMENT_THEORY = SGP/SGP4

EPOCH          = 2025-11-28T20:05:34.009152
MEAN_MOTION    = 12.97979220
ECCENTRICITY   = .00291637
INCLINATION    = 90.2374
RA_OF_ASC_NODE = 2.5637
ARG_OF_PERICENTER = 181.9091
MEAN_ANOMALY   = 178.1923

EPHEMERIS_TYPE = 0
CLASSIFICATION_TYPE = U
NORAD_CAT_ID   = 270296
ELEMENT_SET_NO = 999
REV_AT_EPOCH   = 28354
BSTAR          = .19600881E-2
MEAN_MOTION_DOT = .581E-5
MEAN_MOTION_DDOT = 0

CCSDS_OMM_VERS = 2.0
CREATION_DATE  = 
ORIGINATOR     = 

OBJECT_NAME    = UNKNOWN
OBJECT_ID      = 
CENTER_NAME    = EARTH
REF_FRAME      = TEME
TIME_SYSTEM    = UTC
MEAN_ELEMENT_THEORY = SGP/SGP4

EPOCH          = 2025-11-16T14:35:37.291200
MEAN_MOTION    = 12.99403837
ECCENTRICITY   = .00426981
INCLINATION    = 90.2698
RA_OF_ASC_NODE = 18.1771
ARG_OF_PERICENTER = 138.6145
MEAN_ANOMALY   = 221.8225

EPHEMERIS_TYPE = 0
CLASSIFICATION_TYPE = U
NORAD_CAT_ID   = 270297
ELEMENT_SET_NO = 999
REV_AT_EPOCH   = 28211
BSTAR          = .28739604E-2
MEAN_MOTION_DOT = .868E-5
MEAN_MOTION_DDOT = 0

CCSDS_OMM_VERS = 2.0
CREATION_DATE  = 
ORIGINATOR     = 

OBJECT_NAME    = UNKNOWN
OBJECT_ID      = 
CENTER_NAME    = EARTH
REF_FRAME      = TEME
TIME_SYSTEM    = UTC
MEAN_ELEMENT_THEORY = SGP/SGP4

EPOCH          = 2025-12-02T20:03:29.576736
MEAN_MOTION    = 2.07861175
ECCENTRICITY   = .73623
INCLINATION    = 60.0623
RA_OF_ASC_NODE = 217.6162
ARG_OF_PERICENTER = 74.0803
MEAN_ANOMALY   = 350.1048

EPHEMERIS_TYPE = 0
CLASSIFICATION_TYPE = U
NORAD_CAT_ID   = 270298
ELEMENT_SET_NO = 999
REV_AT_EPOCH   = 1145
BSTAR          = .11416147E-1
MEAN_MOTION_DOT = .2719E-4
MEAN_MOTION_DDOT = 0

CCSDS_OMM_VERS = 2.0
CREATION_DATE  = 
ORIGINATOR     = 

OBJECT_NAME    = UNKNOWN
OBJECT_ID      = 
CENTER_NAME    = EARTH
REF_FRAME      = TEME
TIME_SYSTEM    = UTC
MEAN_ELEMENT_THEORY = SGP/SGP4

EPOCH          = 2025-12-03T09:06:56.750400
MEAN_MOTION    = 12.95879507
ECCENTRICITY   = .00256303
INCLINATION    = 90.2445
RA_OF_ASC_NODE = 7.5643
ARG_OF_PERICENTER = 330.8742
MEAN_ANOMALY   = 29.0947

EPHEMERIS_TYPE = 0
CLASSIFICATION_TYPE = U
NORAD_CAT_ID   = 270299
ELEMENT_SET_NO = 999
REV_AT_EPOCH   = 26248
BSTAR          = .20967744E-2
MEAN_MOTION_DOT = .603E-5
MEAN_MOTION_DDOT = 0

CCSDS_OMM_VERS = 2.0
CREATION_DATE  = 
ORIGINATOR     = 

OBJECT_NAME    = UNKNOWN
OBJECT_ID      = 
CENTER_NAME    = EARTH
REF_FRAME      = TEME
TIME_SYSTEM    = UTC
MEAN_ELEMENT_THEORY = SGP/SGP4

EPOCH          = 2025-12-03T07:23:07.618848
MEAN_MOTION    = 14.51124215
ECCENTRICITY   = .00301675
INCLINATION    = 98.8497
RA_OF_ASC_NODE = 358.3004
ARG_OF_PERICENTER = 259.1585
MEAN_ANOMALY   = 100.6213

EPHEMERIS_TYPE = 0
CLASSIFICATION_TYPE = U
NORAD_CAT_ID   = 270300
ELEMENT_SET_NO = 999
REV_AT_EPOCH   = 7856
BSTAR          = .2087797E-2
MEAN_MOTION_DOT = .8286E-4
MEAN_MOTION_DDOT = 0

CCSDS_OMM_VERS = 2.0
CREATION_DATE  = 
ORIGINATOR     = 

OBJECT_NAME    = UNKNOWN
OBJECT_ID      = 
CENTER_NAME    = EARTH
REF_FRAME      = TEME
TIME_SYSTEM    = UTC
MEAN_ELEMENT_THEORY = SGP/SGP4

EPOCH          = 2025-12-03T07:24:17.726400
MEAN_MOTION    = 14.47928061
ECCENTRICITY   = .00152063
INCLINATION    = 98.9327
RA_OF_ASC_NODE = 354.2974
ARG_OF_PERICENTER = 101.1700
MEAN_ANOMALY   = 259.1202

EPHEMERIS_TYPE = 0
CLASSIFICATION_TYPE = U
NORAD_CAT_ID   = 270302
ELEMENT_SET_NO = 999
REV_AT_EPOCH   = 24533
BSTAR          = .23127263E-2
MEAN_MOTION_DOT = .8549E-4
MEAN_MOTION_DDOT = 0

CCSDS_OMM_VERS = 2.0
CREATION_DATE  = 
ORIGINATOR     = 

OBJECT_NAME    = UNKNOWN
OBJECT_ID      = 
CENTER_NAME    = EARTH
REF_FRAME      = TEME
TIME_SYSTEM    = UTC
MEAN_ELEMENT_THEORY = SGP/SGP4

EPOCH          = 2025-11-30T19:03:58.824576
MEAN_MOTION    = 15.13994583
ECCENTRICITY   = .00133936
INCLINATION    = 98.6207
RA_OF_ASC_NODE = 352.0781
ARG_OF_PERICENTER = 161.1706
MEAN_ANOMALY   = 199.0020

EPHEMERIS_TYPE = 0
CLASSIFICATION_TYPE = U
NORAD_CAT_ID   = 270303
ELEMENT_SET_NO = 999
REV_AT_EPOCH   = 24803
BSTAR          = .54644558E-2
MEAN_MOTION_DOT = .100636E-2
MEAN_MOTION_DDOT = 0

CCSDS_OMM_VERS = 2.0
CREATION_DATE  = 
ORIGINATOR     = 

OBJECT_NAME    = UNKNOWN
OBJECT_ID      = 
CENTER_NAME    = EARTH
REF_FRAME      = TEME
TIME_SYSTEM    = UTC
MEAN_ELEMENT_THEORY = SGP/SGP4

EPOCH          = 2025-12-01T00:13:53.531904
MEAN_MOTION    = 14.98288918
ECCENTRICITY   = .00060111
INCLINATION    = 98.6885
RA_OF_ASC_NODE = 348.1491
ARG_OF_PERICENTER = 152.3853
MEAN_ANOMALY   = 207.7687

EPHEMERIS_TYPE = 0
CLASSIFICATION_TYPE = U
NORAD_CAT_ID   = 270304
ELEMENT_SET_NO = 999
REV_AT_EPOCH   = 24648
BSTAR          = .48816712E-2
MEAN_MOTION_DOT = .58484E-3
MEAN_MOTION_DDOT = 0

CCSDS_OMM_VERS = 2.0
CREATION_DATE  = 
ORIGINATOR     = 

OBJECT_NAME    = UNKNOWN
OBJECT_ID      = 
CENTER_NAME    = EARTH
REF_FRAME      = TEME
TIME_SYSTEM    = UTC
MEAN_ELEMENT_THEORY = SGP/SGP4

EPOCH          = 2025-12-01T21:53:37.993056
MEAN_MOTION    = 14.37131720
ECCENTRICITY   = .00078368
INCLINATION    = 98.8161
RA_OF_ASC_NODE = 313.5988
ARG_OF_PERICENTER = 345.1694
MEAN_ANOMALY   = 14.9261

EPHEMERIS_TYPE = 0
CLASSIFICATION_TYPE = U
NORAD_CAT_ID   = 270305
ELEMENT_SET_NO = 999
REV_AT_EPOCH   = 24273
BSTAR          = .10397561E-2
MEAN_MOTION_DOT = .3046E-4
MEAN_MOTION_DDOT = 0

CCSDS_OMM_VERS = 2.0
CREATION_DATE  = 
ORIGINATOR     = 

OBJECT_NAME    = UNKNOWN
OBJECT_ID      = 
CENTER_NAME    = EARTH
REF_FRAME      = TEME
TIME_SYSTEM    = UTC
MEAN_ELEMENT_THEORY = SGP/SGP4

EPOCH          = 2025-12-02T18:40:42.739680
MEAN_MOTION    = 12.92675972
ECCENTRICITY   = .00298611
INCLINATION    = 90.2430
RA_OF_ASC_NODE = 2.6387
ARG_OF_PERICENTER = 84.2857
MEAN_ANOMALY   = 276.1665

EPHEMERIS_TYPE = 0
CLASSIFICATION_TYPE = U
NORAD_CAT_ID   = 270306
ELEMENT_SET_NO = 999
REV_AT_EPOCH   = 23924
BSTAR          = .16230955E-2
MEAN_MOTION_DOT = .449E-5
MEAN_MOTION_DDOT = 0

CCSDS_OMM_VERS = 2.0
CREATION_DATE  = 
ORIGINATOR     = 

OBJECT_NAME    = UNKNOWN
OBJECT_ID      = 
CENTER_NAME    = EARTH
REF_FRAME      = TEME
TIME_SYSTEM    = UTC
MEAN_ELEMENT_THEORY = SGP/SGP4

EPOCH          = 2025-12-02T10:39:39.708576
MEAN_MOTION    = 13.64775540
ECCENTRICITY   = .00987929
INCLINATION    = 82.6896
RA_OF_ASC_NODE = 227.4522
ARG_OF_PERICENTER = 308.3796
MEAN_ANOMALY   = 50.8509

EPHEMERIS_TYPE = 0
CLASSIFICATION_TYPE = U
NORAD_CAT_ID   = 270307
ELEMENT_SET_NO = 999
REV_AT_EPOCH   = 27550
BSTAR          = .1424852E-1
MEAN_MOTION_DOT = .11892E-3
MEAN_MOTION_DDOT = 0

CCSDS_OMM_VERS = 2.0
CREATION_DATE  = 
ORIGINATOR     = 

OBJECT_NAME    = UNKNOWN
OBJECT_ID      = 
CENTER_NAME    = EARTH
REF_FRAME      = TEME
TIME_SYSTEM    = UTC
MEAN_ELEMENT_THEORY = SGP/SGP4

EPOCH          = 2025-11-28T08:17:43.849824
MEAN_MOTION    = 12.98940725
ECCENTRICITY   = .02134617
INCLINATION    = 82.5816
RA_OF_ASC_NODE = 349.1315
ARG_OF_PERICENTER = 293.9236
MEAN_ANOMALY   = 63.9648

EPHEMERIS_TYPE = 0
CLASSIFICATION_TYPE = U
NORAD_CAT_ID   = 270308
ELEMENT_SET_NO = 999
REV_AT_EPOCH   = 27109
BSTAR          = .81524615E-2
MEAN_MOTION_DOT = .2695E-4
MEAN_MOTION_DDOT = 0

